[{"OBJECT_NAME":"STARLINK-4126","OBJECT_ID":"2022-062AP","EPOCH":"2026-03-09T06:00:48.406464","MEAN_MOTION":15.08814909,"ECCENTRICITY":0.0001258,"INCLINATION":53.2186,"RA_OF_ASC_NODE":26.0897,"ARG_OF_PERICENTER":71.3014,"MEAN_ANOMALY":288.8114,"EPHEMERIS_TYPE":0,"CLASSIFICATION_TYPE":"U","NORAD_CAT_ID":52867,"ELEMENT_SET_NO":999,"REV_AT_EPOCH":20586,"BSTAR":0.00014609846,"MEAN_MOTION_DOT":2.037e-5,"MEAN_MOTION_DDOT":0},{"OBJECT_NAME":"OBJECT A","OBJECT_ID":"2024-205A","EPOCH":"2026-03-09T23:47:25.060128","MEAN_MOTION":15.10420635,"ECCENTRICITY":0.00183963,"INCLINATION":97.4208,"RA_OF_ASC_NODE":142.0688,"ARG_OF_PERICENTER":137.3438,"MEAN_ANOMALY":222.9224,"EPHEMERIS_TYPE":0,"CLASSIFICATION_TYPE":"U","NORAD_CAT_ID":61894,"ELEMENT_SET_NO":999,"REV_AT_EPOCH":7322,"BSTAR":0.00061451018,"MEAN_MOTION_DOT":0.00010084,"MEAN_MOTION_DDOT":0}]
